{"type":"FeatureCollection","features":[{"type":"Feature","geometry":{"type":"Polygon","coordinates":[[[119.90015587580005,12.036393296915984],[119.88499309425917,12.05279748670814],[119.87153507266284,12.070584825806124],[119.85991156624968,12.089584270089189],[119.85023476309176,12.109613084084875],[119.84259819453104,12.13047859161557],[119.83707582178018,12.151980023178172],[119.8337213079395,12.173910442584065],[119.83256748301591,12.196058734576791],[119.83362600777181,12.21821163449973],[119.83688724039592,12.240155780614574],[119.84232030808163,12.261679769379477],[119.84987338364623,12.282576193889614],[119.85947416533574,12.302643645766093],[119.87103055595828,12.3216886610544],[119.88443153549304,12.33952759116101],[119.89954821935372,12.355988380515145],[120.51747539845516,12.963651372590085],[120.5342370526178,12.978536459635327],[120.55240756418158,12.991737397671066],[120.57181177224727,13.003126790344192],[120.59226252887781,13.012594708620435],[120.61356251197752,13.020049758974404],[120.63550613992955,13.025419971889164],[120.65788156899451,13.028653501773583],[120.6804727535431,13.02971913128206],[120.7030615484861,13.028606574976584],[120.72542983278632,13.025326579284142],[120.74736163269837,13.019910817749867],[120.76864522338651,13.012411582645246],[120.78907518781786,13.002901276037026],[120.80845441231432,12.991471705433215],[120.8265959988652,12.97823319107488],[120.84332507523722,12.963313493814521],[120.90836785971031,12.899282705034075],[120.92351534476049,12.88282211447378],[120.93694337666248,12.864983480135061],[120.94852281584389,12.84593885884566],[120.95814242919137,12.825871899172613],[120.96570995002023,12.804976063615712],[120.97115295185493,12.783452757558784],[120.9744195282065,12.761509383297778],[120.97547877250875,12.739357338121469],[120.97432105438055,12.717209975886796],[120.97095809038807,12.695280551804263],[120.96542280947509,12.673780170230467],[120.95776901518714,12.652915755156789],[120.9480708487209,12.632888062790139],[120.93642205867071,12.61388975514804],[120.92293508509952,12.596103552944392],[120.90773996722668,12.579700485231267],[120.28981280887417,11.972913248170016],[120.27312959661054,11.958011922528371],[120.25504508786028,11.944791232754262],[120.23573328858488,11.933378246593112],[120.2153799262743,11.923882642149508],[120.19418067113433,11.91639566049195],[120.1723392647975,11.910989234729927],[120.15006557408219,11.907715303666318],[120.12757358794862,11.906605316401588],[120.10507937627068,11.907669932486082],[120.08279902935757,11.910898920398381],[120.06094659731625,11.916261255285942],[120.03973204834651,11.923705415055247],[120.0193592649029,11.933159872057207],[120.00002409634301,11.944533775795694],[119.98191248621254,11.957717820307671],[119.96519869169458,11.972585288137669],[119.90015587580005,12.036393296915984]]]},"properties":{"feature_type":"buffer","buffer_km":25,"label":"Mindoro + 25 km","color":"#F59E0B"}},{"type":"Feature","geometry":{"type":"Polygon","coordinates":[[[119.99741718257123,12.132435436051678],[119.99135244801901,12.13899934126593],[119.9859705004508,12.146116433905945],[119.98132319521477,12.153718213827645],[119.97745532873196,12.16173151008414],[119.97440420555651,12.170079184128806],[119.9721992770264,12.178680871397082],[119.97086185506359,12.187453754175607],[119.97040490397583,12.196313358357694],[119.97083291237804,12.205174366444298],[119.97214184658914,12.213951438982171],[119.97431918608305,12.222560036537534],[119.97734404078295,12.230917234285949],[119.9811873491962,12.238942521357982],[119.98581215560051,12.246558577214849],[119.99117396371717,12.253692017538848],[119.9972211635527,12.260274102407394],[120.61515056261067,12.867717237371822],[120.62185472560114,12.87366899662992],[120.62912150387565,12.87894718811543],[120.63688088709772,12.883500938036741],[120.6450581041597,12.887286352774192],[120.65357434495947,12.890266943091124],[120.66234752165907,12.892413976848216],[120.67129306200705,12.893706756773287],[120.68032472697547,12.89413282056972],[120.68935544471556,12.893688061405735],[120.6982981526658,12.892376767605505],[120.70706663956479,12.890211581154512],[120.71557637912007,12.887213375426203],[120.72374534717227,12.883411053328368],[120.73149481436268,12.878841267845502],[120.73875010656411,12.873548067712104],[120.74544132566655,12.8675824716815],[120.81048479328945,12.803575008012942],[120.81654432975748,12.796993038328539],[120.82191700453863,12.789859750518884],[120.826551103866,12.782243883692031],[120.83040204337638,12.774218820946167],[120.8334327957457,12.765861881184167],[120.83561424497881,12.75725357321869],[120.83692546403223,12.74847681939983],[120.83735391320438,12.739616156281189],[120.83689555750584,12.730756920050414],[120.83555490200993,12.721984424584809],[120.83334494497845,12.713383140051054],[120.83028704934814,12.705035879950177],[120.82641073394201,12.69702300441548],[120.82175338653266,12.689421647403114],[120.81635990162086,12.682304975175088],[120.81028224649883,12.67574148316475],[120.19235286738405,12.06873622722381],[120.18567916145126,12.06277347627694],[120.17844406168554,12.057483060681554],[120.17071722106861,12.052915888945996],[120.16257301242663,12.049115907449995],[120.1540898137513,12.04611967866542],[120.14534925549196,12.043956030313447],[120.13643543698736,12.042645778788904],[120.12743411948486,12.042201529475808],[120.11843190340761,12.042627555847462],[120.10951539767177,12.043919758496845],[120.1007703889282,12.046065704484754],[120.09228101860306,12.049044746631699],[120.0841289755414,12.052828221621434],[120.0763927119162,12.057379725035933],[120.06914668985462,12.062655460711145],[120.06246066595456,12.068604661095678],[119.99741718257123,12.132435436051678]]]},"properties":{"feature_type":"buffer","buffer_km":10,"label":"Mindoro + 10 km","color":"#EF4444"}},{"type":"Feature","geometry":{"type":"Polygon","coordinates":[[[120.06229664945917,12.196444262741062],[120.68022670099458,12.803741166301284],[120.74527053553449,12.739749217035296],[120.12734049315095,12.132598274356301],[120.06229664945917,12.196444262741062]]]},"properties":{"feature_type":"chokepoint","label":"Mindoro Strait geometry","color":"#111827"}},{"type":"Feature","geometry":{"type":"MultiLineString","coordinates":[[[116.3714,22.9345],[116.9708,22.987],[116.9965,22.9985],[117.7335,22.022],[117.7875,21.95],[119.3145,19.9143],[119.6675,19.4433],[119.6373,19.166],[119.6083,18.903],[119.5648,18.5048],[119.4003,17.0005],[119.9,14.4],[119.9035,14.2663],[120.05,8.4],[119.9675,7.3125],[119.7023,3.8055],[119.6408,2.9827],[119.5003,1.1003],[118.0193,-2.6812],[117.6988,-3.4957],[116.95,-5.4],[116.8675,-5.603],[116.8135,-5.7367],[116.2,-7.25],[115.6043,-9.0894],[115.5748,-9.2495],[116.4395,-17.9185],[116.555,-19.077],[116.6655,-20.1862],[116.6683,-20.213],[116.7295,-20.6225],[116.7656,-20.6128]]]},"properties":{"feature_type":"route","route_id":"R059","from_terminal":"Pluto LNG Terminal","to_terminal":"Jieyang LNG Terminal (PipeChina)","from_node_id":"LNGN0297","to_node_id":"LNGN0195","minimum_distance_km":11.536,"sensitivity_band":"between_10_and_25km","color":"#F59E0B"}},{"type":"Feature","geometry":{"type":"MultiLineString","coordinates":[[[120.2054,22.8093],[119.7533,22.4557],[119.724,22.1985],[119.723,22.0813],[119.7043,19.7805],[119.6675,19.4433],[119.6373,19.166],[119.6083,18.903],[119.5648,18.5048],[119.4003,17.0005],[119.9,14.4],[119.9035,14.2663],[120.05,8.4],[119.9675,7.3125],[119.7023,3.8055],[119.6408,2.9827],[119.5003,1.1003],[118.0193,-2.6812],[117.6988,-3.4957],[116.95,-5.4],[116.8675,-5.603],[116.8135,-5.7367],[116.2,-7.25],[115.6043,-9.0894],[115.5748,-9.2495],[116.4395,-17.9185],[116.555,-19.077],[116.6655,-20.1862],[116.6683,-20.213],[116.7295,-20.6225],[116.7656,-20.6128]]]},"properties":{"feature_type":"route","route_id":"R065","from_terminal":"Pluto LNG Terminal","to_terminal":"Yung-An LNG Terminal","from_node_id":"LNGN0297","to_node_id":"LNGN0463","minimum_distance_km":11.536,"sensitivity_band":"between_10_and_25km","color":"#F59E0B"}},{"type":"Feature","geometry":{"type":"MultiLineString","coordinates":[[[126.4947,36.415],[126.074,37.5263],[125.5,37.4],[125.5,36],[125.6,34.4],[124.4898,33.1253],[122.9,31.3],[122.7495,30.985],[122.6775,30.8345],[122.3663,30.1485],[122.2245,29.8365],[121.3,27.8],[120,25.7],[120,25.337],[120,24.6335],[119.7533,22.4557],[119.724,22.1985],[119.723,22.0813],[119.7043,19.7805],[119.6675,19.4433],[119.6373,19.166],[119.6083,18.903],[119.5648,18.5048],[119.4003,17.0005],[119.9,14.4],[119.9035,14.2663],[120.05,8.4],[119.9675,7.3125],[119.7023,3.8055],[119.6408,2.9827],[119.5003,1.1003],[118.0193,-2.6812],[117.6988,-3.4957],[116.95,-5.4],[116.8675,-5.603],[116.8135,-5.7367],[116.2,-7.25],[115.6043,-9.0894],[115.5748,-9.2495],[116.4395,-17.9185],[116.555,-19.077],[116.6655,-20.1862],[116.6683,-20.213],[114.5,-20.9],[115.4497,-20.79]]]},"properties":{"feature_type":"route","route_id":"R083","from_terminal":"Gorgon LNG Terminal","to_terminal":"Boryeong LNG Terminal","from_node_id":"LNGN0142","to_node_id":"LNGN0040","minimum_distance_km":11.536,"sensitivity_band":"between_10_and_25km","color":"#F59E0B"}},{"type":"Feature","geometry":{"type":"MultiLineString","coordinates":[[[120.2054,22.8093],[119.7533,22.4557],[119.724,22.1985],[119.723,22.0813],[119.7043,19.7805],[119.6675,19.4433],[119.6373,19.166],[119.6083,18.903],[119.5648,18.5048],[119.4003,17.0005],[119.9,14.4],[119.9035,14.2663],[120.05,8.4],[119.9675,7.3125],[119.7023,3.8055],[119.6408,2.9827],[119.5003,1.1003],[118.0193,-2.6812],[117.6988,-3.4957],[116.95,-5.4],[116.8675,-5.603],[116.8135,-5.7367],[116.2,-7.25],[115.6043,-9.0894],[115.5748,-9.2495],[116.4395,-17.9185],[116.555,-19.077],[116.6655,-20.1862],[116.6683,-20.213],[114.5,-20.9],[115.4497,-20.79]]]},"properties":{"feature_type":"route","route_id":"R085","from_terminal":"Gorgon LNG Terminal","to_terminal":"Yung-An LNG Terminal","from_node_id":"LNGN0142","to_node_id":"LNGN0463","minimum_distance_km":11.536,"sensitivity_band":"between_10_and_25km","color":"#F59E0B"}},{"type":"Feature","geometry":{"type":"MultiLineString","coordinates":[[[126.7841,37.0057],[126.074,37.5263],[125.5,37.4],[125.5,36],[125.6,34.4],[124.4898,33.1253],[122.9,31.3],[122.7495,30.985],[122.6775,30.8345],[122.3663,30.1485],[122.2245,29.8365],[121.3,27.8],[120,25.7],[120,25.337],[120,24.6335],[119.7533,22.4557],[119.724,22.1985],[119.723,22.0813],[119.7043,19.7805],[119.6675,19.4433],[119.6373,19.166],[119.6083,18.903],[119.5648,18.5048],[119.4003,17.0005],[119.9,14.4],[119.9035,14.2663],[120.05,8.4],[119.9675,7.3125],[119.7023,3.8055],[119.6408,2.9827],[119.5003,1.1003],[118.0193,-2.6812],[117.6988,-3.4957],[116.95,-5.4],[116.8675,-5.603],[116.8135,-5.7367],[116.2,-7.25],[115.6043,-9.0894],[115.5748,-9.2495],[116.4395,-17.9185],[116.555,-19.077],[116.6655,-20.1862],[116.6683,-20.213],[116.7295,-20.6225],[116.7656,-20.6128]]]},"properties":{"feature_type":"route","route_id":"R086","from_terminal":"Pluto LNG Terminal","to_terminal":"Pyeongtaek LNG Terminal","from_node_id":"LNGN0297","to_node_id":"LNGN0314","minimum_distance_km":11.536,"sensitivity_band":"between_10_and_25km","color":"#F59E0B"}},{"type":"Feature","geometry":{"type":"MultiLineString","coordinates":[[[120.2054,22.8093],[119.7533,22.4557],[119.724,22.1985],[119.723,22.0813],[119.7043,19.7805],[119.6675,19.4433],[119.6373,19.166],[119.6083,18.903],[119.5648,18.5048],[119.4003,17.0005],[119.9,14.4],[119.9035,14.2663],[120.05,8.4],[119.9675,7.3125],[119.7023,3.8055],[119.6408,2.9827],[119.5003,1.1003],[118.0193,-2.6812],[117.6988,-3.4957],[116.95,-5.4],[116.8675,-5.603],[116.8135,-5.7367],[116.2,-7.25],[115.6043,-9.0894],[115.5748,-9.2495],[116.4395,-17.9185],[116.555,-19.077],[116.6655,-20.1862],[116.6683,-20.213],[114.5,-20.9],[114.1373,-21.5181],[114.282,-21.7115],[114.2265,-22.0987],[115.0011,-21.6979]]]},"properties":{"feature_type":"route","route_id":"R088","from_terminal":"Wheatstone LNG Terminal","to_terminal":"Yung-An LNG Terminal","from_node_id":"LNGN0441","to_node_id":"LNGN0463","minimum_distance_km":11.536,"sensitivity_band":"between_10_and_25km","color":"#F59E0B"}},{"type":"Feature","geometry":{"type":"MultiLineString","coordinates":[[[122.2825,30.1006],[122.3663,30.1485],[122.2245,29.8365],[121.3,27.8],[120,25.7],[120,25.337],[120,24.6335],[119.7533,22.4557],[119.724,22.1985],[119.723,22.0813],[119.7043,19.7805],[119.6675,19.4433],[119.6373,19.166],[119.6083,18.903],[119.5648,18.5048],[119.4003,17.0005],[119.9,14.4],[119.9035,14.2663],[120.05,8.4],[119.9675,7.3125],[119.7023,3.8055],[119.6408,2.9827],[119.5003,1.1003],[118.0193,-2.6812],[117.6988,-3.4957],[116.95,-5.4],[116.8675,-5.603],[116.8135,-5.7367],[116.2,-7.25],[115.6043,-9.0894],[115.5748,-9.2495],[116.4395,-17.9185],[116.555,-19.077],[116.6655,-20.1862],[116.6683,-20.213],[114.5,-20.9],[115.4497,-20.79]]]},"properties":{"feature_type":"route","route_id":"R093","from_terminal":"Gorgon LNG Terminal","to_terminal":"Zhoushan LNG Terminal","from_node_id":"LNGN0142","to_node_id":"LNGN0472","minimum_distance_km":11.536,"sensitivity_band":"between_10_and_25km","color":"#F59E0B"}},{"type":"Feature","geometry":{"type":"MultiLineString","coordinates":[[[120.2054,22.8093],[119.7533,22.4557],[119.724,22.1985],[119.723,22.0813],[119.7043,19.7805],[119.6675,19.4433],[119.6373,19.166],[119.6083,18.903],[119.5648,18.5048],[119.4003,17.0005],[119.9,14.4],[121.4458,11.532],[121.6135,11.2173],[121.7625,8.7195],[121.8915,6.9468],[124.5873,4.8185],[124.6663,4.7558],[125.6835,3.9513],[127.393,2.5988],[128.15,2],[130,0.0],[131.4,-3],[134.423,-4.9505],[134.5,-5],[137,-9],[142.133,-10.55],[145.4,-14.7],[145.845,-16.1837],[146,-16.7],[146.8818,-16.934],[147.0585,-17.1875],[149.433,-18.7467],[153.337,-23.7657],[151.199,-23.7693]]]},"properties":{"feature_type":"route","route_id":"R098","from_terminal":"Queensland Curtis LNG Terminal","to_terminal":"Yung-An LNG Terminal","from_node_id":"LNGN0322","to_node_id":"LNGN0463","minimum_distance_km":5.22,"sensitivity_band":"within_10km","color":"#DC2626"}},{"type":"Feature","geometry":{"type":"MultiLineString","coordinates":[[[121.7469,32.0418],[121.2815,32.687],[121.7785,32.8843],[122.9,31.3],[122.7495,30.985],[122.6775,30.8345],[122.3663,30.1485],[122.2245,29.8365],[121.3,27.8],[120,25.7],[120,25.337],[120,24.6335],[119.7533,22.4557],[119.724,22.1985],[119.723,22.0813],[119.7043,19.7805],[119.6675,19.4433],[119.6373,19.166],[119.6083,18.903],[119.5648,18.5048],[119.4003,17.0005],[119.9,14.4],[119.9035,14.2663],[120.05,8.4],[119.9675,7.3125],[119.7023,3.8055],[119.6408,2.9827],[119.5003,1.1003],[118.0193,-2.6812],[117.6988,-3.4957],[116.95,-5.4],[116.8675,-5.603],[116.8135,-5.7367],[116.2,-7.25],[115.6043,-9.0894],[115.5748,-9.2495],[116.4395,-17.9185],[116.555,-19.077],[116.6655,-20.1862],[116.6683,-20.213],[114.5,-20.9],[115.4497,-20.79]]]},"properties":{"feature_type":"route","route_id":"R118","from_terminal":"Gorgon LNG Terminal","to_terminal":"Qidong LNG Terminal","from_node_id":"LNGN0142","to_node_id":"LNGN0319","minimum_distance_km":11.536,"sensitivity_band":"between_10_and_25km","color":"#F59E0B"}},{"type":"Feature","geometry":{"type":"MultiLineString","coordinates":[[[126.7841,37.0057],[126.074,37.5263],[125.5,37.4],[125.5,36],[125.6,34.4],[124.4898,33.1253],[122.9,31.3],[122.7495,30.985],[122.6775,30.8345],[122.3663,30.1485],[122.2245,29.8365],[121.3,27.8],[120,25.7],[120,25.337],[120,24.6335],[119.7533,22.4557],[119.724,22.1985],[119.723,22.0813],[119.7043,19.7805],[119.6675,19.4433],[119.6373,19.166],[119.6083,18.903],[119.5648,18.5048],[119.4003,17.0005],[119.9,14.4],[119.9035,14.2663],[120.05,8.4],[119.9675,7.3125],[119.7023,3.8055],[119.6408,2.9827],[119.5003,1.1003],[118.0193,-2.6812],[117.6988,-3.4957],[116.95,-5.4],[116.8675,-5.603],[116.8135,-5.7367],[116.2,-7.25],[115.6043,-9.0894],[115.5748,-9.2495],[116.4395,-17.9185],[116.555,-19.077],[116.6655,-20.1862],[116.6683,-20.213],[114.5,-20.9],[115.4497,-20.79]]]},"properties":{"feature_type":"route","route_id":"R134","from_terminal":"Gorgon LNG Terminal","to_terminal":"Pyeongtaek LNG Terminal","from_node_id":"LNGN0142","to_node_id":"LNGN0314","minimum_distance_km":11.536,"sensitivity_band":"between_10_and_25km","color":"#F59E0B"}},{"type":"Feature","geometry":{"type":"MultiLineString","coordinates":[[[126.602,37.3512],[126.074,37.5263],[125.5,37.4],[125.5,36],[125.6,34.4],[124.4898,33.1253],[122.9,31.3],[122.7495,30.985],[122.6775,30.8345],[122.3663,30.1485],[122.2245,29.8365],[121.3,27.8],[120,25.7],[120,25.337],[120,24.6335],[119.7533,22.4557],[119.724,22.1985],[119.723,22.0813],[119.7043,19.7805],[119.6675,19.4433],[119.6373,19.166],[119.6083,18.903],[119.5648,18.5048],[119.4003,17.0005],[119.9,14.4],[119.9035,14.2663],[120.05,8.4],[119.9675,7.3125],[119.7023,3.8055],[119.6408,2.9827],[119.5003,1.1003],[118.0193,-2.6812],[117.6988,-3.4957],[116.95,-5.4],[116.8675,-5.603],[116.8135,-5.7367],[116.2,-7.25],[115.6043,-9.0894],[115.5748,-9.2495],[116.4395,-17.9185],[116.555,-19.077],[116.6655,-20.1862],[116.6683,-20.213],[114.5,-20.9],[115.4497,-20.79]]]},"properties":{"feature_type":"route","route_id":"R148","from_terminal":"Gorgon LNG Terminal","to_terminal":"Incheon LNG Terminal","from_node_id":"LNGN0142","to_node_id":"LNGN0181","minimum_distance_km":11.536,"sensitivity_band":"between_10_and_25km","color":"#F59E0B"}},{"type":"Feature","geometry":{"type":"MultiLineString","coordinates":[[[117.7149,38.7492],[117.7005,38.9848],[118.9898,38.7288],[120.7763,38.4848],[121.1903,38.4365],[122.1825,37.8155],[123.1985,37.102],[123.1208,35.568],[123.072,34.6245],[123.007,33.3715],[122.9,31.3],[122.7495,30.985],[122.6775,30.8345],[122.3663,30.1485],[122.2245,29.8365],[121.3,27.8],[120,25.7],[120,25.337],[120,24.6335],[119.7533,22.4557],[119.724,22.1985],[119.723,22.0813],[119.7043,19.7805],[119.6675,19.4433],[119.6373,19.166],[119.6083,18.903],[119.5648,18.5048],[119.4003,17.0005],[119.9,14.4],[119.9035,14.2663],[120.05,8.4],[119.9675,7.3125],[119.7023,3.8055],[119.6408,2.9827],[119.5003,1.1003],[118.0193,-2.6812],[117.6988,-3.4957],[116.95,-5.4],[116.8675,-5.603],[116.8135,-5.7367],[116.2,-7.25],[115.6043,-9.0894],[115.5748,-9.2495],[116.4395,-17.9185],[116.555,-19.077],[116.6655,-20.1862],[116.6683,-20.213],[116.7295,-20.6225],[116.7656,-20.6128]]]},"properties":{"feature_type":"route","route_id":"R149","from_terminal":"Pluto LNG Terminal","to_terminal":"Tianjin LNG Terminal (Sinopec)","from_node_id":"LNGN0297","to_node_id":"LNGN0421","minimum_distance_km":11.536,"sensitivity_band":"between_10_and_25km","color":"#F59E0B"}},{"type":"Feature","geometry":{"type":"MultiLineString","coordinates":[[[116.3714,22.9345],[116.9708,22.987],[116.9965,22.9985],[117.7335,22.022],[117.7875,21.95],[119.3145,19.9143],[119.6675,19.4433],[119.6373,19.166],[119.6083,18.903],[119.5648,18.5048],[119.4003,17.0005],[119.9,14.4],[119.9035,14.2663],[120.05,8.4],[119.9675,7.3125],[119.7023,3.8055],[119.6408,2.9827],[119.5003,1.1003],[118.0193,-2.6812],[117.6988,-3.4957],[116.95,-5.4],[116.8675,-5.603],[116.8135,-5.7367],[116.2,-7.25],[115.6043,-9.0894],[115.5748,-9.2495],[116.4395,-17.9185],[116.555,-19.077],[116.6655,-20.1862],[116.6683,-20.213],[114.5,-20.9],[115.4497,-20.79]]]},"properties":{"feature_type":"route","route_id":"R168","from_terminal":"Gorgon LNG Terminal","to_terminal":"Jieyang LNG Terminal (PipeChina)","from_node_id":"LNGN0142","to_node_id":"LNGN0195","minimum_distance_km":11.536,"sensitivity_band":"between_10_and_25km","color":"#F59E0B"}},{"type":"Feature","geometry":{"type":"MultiLineString","coordinates":[[[123.5382,-15.2539],[122.8643,-15.0297],[122.3615,-11.4395],[122.3,-11],[123.2185,-9.415],[124.548,-8.6555],[125.4255,-8.1565],[125.4378,-8.0685],[125.4503,-7.9815],[125.4658,-7.8715],[125.5745,-7.1015],[125.5743,-7.0339],[125.289,-5.055],[125.23,-4.6312],[125.1,-3.7],[125.362,-0.4892],[125.5,1.2],[123.6548,4.1413],[121.8915,6.9468],[121.7625,8.7195],[121.6135,11.2173],[121.4458,11.532],[119.9,14.4],[119.4003,17.0005],[119.5648,18.5048],[119.6083,18.903],[119.6373,19.166],[119.6675,19.4433],[119.7043,19.7805],[119.723,22.0813],[119.724,22.1985],[119.7533,22.4557],[120.2054,22.8093]]]},"properties":{"feature_type":"route","route_id":"R192","from_terminal":"Prelude FLNG Terminal","to_terminal":"Yung-An LNG Terminal","from_node_id":"LNGN0309","to_node_id":"LNGN0463","minimum_distance_km":5.22,"sensitivity_band":"within_10km","color":"#DC2626"}},{"type":"Feature","geometry":{"type":"MultiLineString","coordinates":[[[118.5411,38.9387],[118.9898,38.7288],[120.7763,38.4848],[121.1903,38.4365],[122.1825,37.8155],[123.1985,37.102],[123.1208,35.568],[123.072,34.6245],[123.007,33.3715],[122.9,31.3],[122.7495,30.985],[122.6775,30.8345],[122.3663,30.1485],[122.2245,29.8365],[121.3,27.8],[120,25.7],[120,25.337],[120,24.6335],[119.7533,22.4557],[119.724,22.1985],[119.723,22.0813],[119.7043,19.7805],[119.6675,19.4433],[119.6373,19.166],[119.6083,18.903],[119.5648,18.5048],[119.4003,17.0005],[119.9,14.4],[119.9035,14.2663],[120.05,8.4],[119.9675,7.3125],[119.7023,3.8055],[119.6408,2.9827],[119.5003,1.1003],[118.0193,-2.6812],[117.6988,-3.4957],[116.95,-5.4],[116.8675,-5.603],[116.8135,-5.7367],[116.2,-7.25],[115.6043,-9.0894],[115.5748,-9.2495],[116.4395,-17.9185],[116.555,-19.077],[116.6655,-20.1862],[116.6683,-20.213],[114.5,-20.9],[115.4497,-20.79]]]},"properties":{"feature_type":"route","route_id":"R207","from_terminal":"Gorgon LNG Terminal","to_terminal":"Xintian Tangshan LNG Terminal","from_node_id":"LNGN0142","to_node_id":"LNGN0449","minimum_distance_km":11.536,"sensitivity_band":"between_10_and_25km","color":"#F59E0B"}},{"type":"Feature","geometry":{"type":"MultiLineString","coordinates":[[[128.4255,34.9474],[129.037,35.0918],[129.0973,34.9485],[127.6,34.2],[126.5398,33.5458],[124.751,32.442],[124.5338,32.308],[123.6605,31.3128],[123.3255,30.9308],[123.3073,30.8463],[123.0908,29.8435],[122.9568,29.2238],[123.0815,28.5043],[123.0928,28.4395],[123.195,27.85],[123.2905,27.3],[123.5365,25.8808],[123.5463,25.8238],[123.415,25.5708],[121.4633,21.8155],[120.4285,19.8248],[120,19],[119.4003,17.0005],[119.9,14.4],[119.9035,14.2663],[120.05,8.4],[119.9675,7.3125],[119.7023,3.8055],[119.6408,2.9827],[119.5003,1.1003],[118.0193,-2.6812],[117.6988,-3.4957],[116.95,-5.4],[116.8675,-5.603],[116.8135,-5.7367],[116.2,-7.25],[115.6043,-9.0894],[115.5748,-9.2495],[116.4395,-17.9185],[116.555,-19.077],[116.6655,-20.1862],[116.6683,-20.213],[116.7295,-20.6225],[116.7656,-20.6128]]]},"properties":{"feature_type":"route","route_id":"R209","from_terminal":"Pluto LNG Terminal","to_terminal":"Tongyoung LNG Terminal","from_node_id":"LNGN0297","to_node_id":"LNGN0426","minimum_distance_km":11.536,"sensitivity_band":"between_10_and_25km","color":"#F59E0B"}},{"type":"Feature","geometry":{"type":"MultiLineString","coordinates":[[[117.7149,38.7492],[117.7005,38.9848],[118.9898,38.7288],[120.7763,38.4848],[121.1903,38.4365],[122.1825,37.8155],[123.1985,37.102],[123.1208,35.568],[123.072,34.6245],[123.007,33.3715],[122.9,31.3],[122.7495,30.985],[122.6775,30.8345],[122.3663,30.1485],[122.2245,29.8365],[121.3,27.8],[120,25.7],[120,25.337],[120,24.6335],[119.7533,22.4557],[119.724,22.1985],[119.723,22.0813],[119.7043,19.7805],[119.6675,19.4433],[119.6373,19.166],[119.6083,18.903],[119.5648,18.5048],[119.4003,17.0005],[119.9,14.4],[119.9035,14.2663],[120.05,8.4],[119.9675,7.3125],[119.7023,3.8055],[119.6408,2.9827],[119.5003,1.1003],[118.0193,-2.6812],[117.6988,-3.4957],[116.95,-5.4],[116.8675,-5.603],[116.8135,-5.7367],[116.2,-7.25],[115.6043,-9.0894],[115.5748,-9.2495],[116.4395,-17.9185],[116.555,-19.077],[116.6655,-20.1862],[116.6683,-20.213],[114.5,-20.9],[115.4497,-20.79]]]},"properties":{"feature_type":"route","route_id":"R229","from_terminal":"Gorgon LNG Terminal","to_terminal":"Tianjin LNG Terminal (Sinopec)","from_node_id":"LNGN0142","to_node_id":"LNGN0421","minimum_distance_km":11.536,"sensitivity_band":"between_10_and_25km","color":"#F59E0B"}},{"type":"Feature","geometry":{"type":"MultiLineString","coordinates":[[[127.7815,34.889],[127.6,34.2],[126.5398,33.5458],[124.751,32.442],[124.5338,32.308],[123.6605,31.3128],[123.3255,30.9308],[123.3073,30.8463],[123.0908,29.8435],[122.9568,29.2238],[123.0815,28.5043],[123.0928,28.4395],[123.195,27.85],[123.2905,27.3],[123.5365,25.8808],[123.5463,25.8238],[123.415,25.5708],[121.4633,21.8155],[120.4285,19.8248],[120,19],[119.4003,17.0005],[119.9,14.4],[119.9035,14.2663],[120.05,8.4],[119.9675,7.3125],[119.7023,3.8055],[119.6408,2.9827],[119.5003,1.1003],[118.0193,-2.6812],[117.6988,-3.4957],[116.95,-5.4],[116.8675,-5.603],[116.8135,-5.7367],[116.2,-7.25],[115.6043,-9.0894],[115.5748,-9.2495],[116.4395,-17.9185],[116.555,-19.077],[116.6655,-20.1862],[116.6683,-20.213],[114.5,-20.9],[115.4497,-20.79]]]},"properties":{"feature_type":"route","route_id":"R257","from_terminal":"Gorgon LNG Terminal","to_terminal":"Gwangyang LNG Terminal","from_node_id":"LNGN0142","to_node_id":"LNGN0156","minimum_distance_km":11.536,"sensitivity_band":"between_10_and_25km","color":"#F59E0B"}},{"type":"Feature","geometry":{"type":"MultiLineString","coordinates":[[[121.0832,28.0049],[121.3,27.8],[120,25.7],[120,25.337],[120,24.6335],[119.7533,22.4557],[119.724,22.1985],[119.723,22.0813],[119.7043,19.7805],[119.6675,19.4433],[119.6373,19.166],[119.6083,18.903],[119.5648,18.5048],[119.4003,17.0005],[119.9,14.4],[119.9035,14.2663],[120.05,8.4],[119.9675,7.3125],[119.7023,3.8055],[119.6408,2.9827],[119.5003,1.1003],[118.0193,-2.6812],[117.6988,-3.4957],[116.95,-5.4],[116.8675,-5.603],[116.8135,-5.7367],[116.2,-7.25],[115.6043,-9.0894],[115.5748,-9.2495],[116.4395,-17.9185],[116.555,-19.077],[116.6655,-20.1862],[116.6683,-20.213],[114.5,-20.9],[115.4497,-20.79]]]},"properties":{"feature_type":"route","route_id":"R259","from_terminal":"Gorgon LNG Terminal","to_terminal":"Wenzhou LNG Terminal","from_node_id":"LNGN0142","to_node_id":"LNGN0437","minimum_distance_km":11.536,"sensitivity_band":"between_10_and_25km","color":"#F59E0B"}},{"type":"Feature","geometry":{"type":"MultiLineString","coordinates":[[[126.602,37.3512],[126.074,37.5263],[125.5,37.4],[125.5,36],[125.6,34.4],[124.4898,33.1253],[122.9,31.3],[122.7495,30.985],[122.6775,30.8345],[122.3663,30.1485],[122.2245,29.8365],[121.3,27.8],[120,25.7],[120,25.337],[120,24.6335],[119.7533,22.4557],[119.724,22.1985],[119.723,22.0813],[119.7043,19.7805],[119.6675,19.4433],[119.6373,19.166],[119.6083,18.903],[119.5648,18.5048],[119.4003,17.0005],[119.9,14.4],[119.9035,14.2663],[120.05,8.4],[119.9675,7.3125],[119.7023,3.8055],[119.6408,2.9827],[119.5003,1.1003],[118.0193,-2.6812],[117.6988,-3.4957],[116.95,-5.4],[116.8675,-5.603],[116.8135,-5.7367],[116.2,-7.25],[115.6043,-9.0894],[115.5748,-9.2495],[116.4395,-17.9185],[116.555,-19.077],[116.6655,-20.1862],[116.6683,-20.213],[116.7295,-20.6225],[116.7656,-20.6128]]]},"properties":{"feature_type":"route","route_id":"R266","from_terminal":"Pluto LNG Terminal","to_terminal":"Incheon LNG Terminal","from_node_id":"LNGN0297","to_node_id":"LNGN0181","minimum_distance_km":11.536,"sensitivity_band":"between_10_and_25km","color":"#F59E0B"}},{"type":"Feature","geometry":{"type":"MultiLineString","coordinates":[[[128.4255,34.9474],[129.037,35.0918],[129.0973,34.9485],[127.6,34.2],[126.5398,33.5458],[124.751,32.442],[124.5338,32.308],[123.6605,31.3128],[123.3255,30.9308],[123.3073,30.8463],[123.0908,29.8435],[122.9568,29.2238],[123.0815,28.5043],[123.0928,28.4395],[123.195,27.85],[123.2905,27.3],[123.5365,25.8808],[123.5463,25.8238],[123.415,25.5708],[121.4633,21.8155],[120.4285,19.8248],[120,19],[119.4003,17.0005],[119.9,14.4],[119.9035,14.2663],[120.05,8.4],[119.9675,7.3125],[119.7023,3.8055],[119.6408,2.9827],[119.5003,1.1003],[118.0193,-2.6812],[117.6988,-3.4957],[116.95,-5.4],[116.8675,-5.603],[116.8135,-5.7367],[116.2,-7.25],[115.6043,-9.0894],[115.5748,-9.2495],[116.4395,-17.9185],[116.555,-19.077],[116.6655,-20.1862],[116.6683,-20.213],[114.5,-20.9],[115.4497,-20.79]]]},"properties":{"feature_type":"route","route_id":"R292","from_terminal":"Gorgon LNG Terminal","to_terminal":"Tongyoung LNG Terminal","from_node_id":"LNGN0142","to_node_id":"LNGN0426","minimum_distance_km":11.536,"sensitivity_band":"between_10_and_25km","color":"#F59E0B"}},{"type":"Feature","geometry":{"type":"MultiLineString","coordinates":[[[126.4947,36.415],[126.074,37.5263],[125.5,37.4],[125.5,36],[125.6,34.4],[124.4898,33.1253],[122.9,31.3],[122.7495,30.985],[122.6775,30.8345],[122.3663,30.1485],[122.2245,29.8365],[121.3,27.8],[120,25.7],[120,25.337],[120,24.6335],[119.7533,22.4557],[119.724,22.1985],[119.723,22.0813],[119.7043,19.7805],[119.6675,19.4433],[119.6373,19.166],[119.6083,18.903],[119.5648,18.5048],[119.4003,17.0005],[119.9,14.4],[119.9035,14.2663],[120.05,8.4],[119.9675,7.3125],[119.7023,3.8055],[119.6408,2.9827],[119.5003,1.1003],[118.0193,-2.6812],[117.6988,-3.4957],[116.95,-5.4],[116.8675,-5.603],[116.8135,-5.7367],[116.2,-7.25],[115.6043,-9.0894],[115.5748,-9.2495],[116.4395,-17.9185],[116.555,-19.077],[116.6655,-20.1862],[116.6683,-20.213],[116.7295,-20.6225],[116.7656,-20.6128]]]},"properties":{"feature_type":"route","route_id":"R299","from_terminal":"Pluto LNG Terminal","to_terminal":"Boryeong LNG Terminal","from_node_id":"LNGN0297","to_node_id":"LNGN0040","minimum_distance_km":11.536,"sensitivity_band":"between_10_and_25km","color":"#F59E0B"}},{"type":"Feature","geometry":{"type":"MultiLineString","coordinates":[[[116.3714,22.9345],[116.9708,22.987],[116.9965,22.9985],[117.7335,22.022],[117.7875,21.95],[119.3145,19.9143],[119.6675,19.4433],[119.6373,19.166],[119.6083,18.903],[119.5648,18.5048],[119.4003,17.0005],[119.9,14.4],[121.4458,11.532],[121.6135,11.2173],[121.7625,8.7195],[121.8915,6.9468],[124.5873,4.8185],[124.6663,4.7558],[125.6835,3.9513],[127.393,2.5988],[128.15,2],[130,0.0],[131.4,-3],[134.423,-4.9505],[134.5,-5],[137,-9],[142.133,-10.55],[145.4,-14.7],[145.845,-16.1837],[146,-16.7],[146.8818,-16.934],[147.0585,-17.1875],[149.433,-18.7467],[153.337,-23.7657],[151.199,-23.7693]]]},"properties":{"feature_type":"route","route_id":"R302","from_terminal":"Queensland Curtis LNG Terminal","to_terminal":"Jieyang LNG Terminal (PipeChina)","from_node_id":"LNGN0322","to_node_id":"LNGN0195","minimum_distance_km":5.22,"sensitivity_band":"within_10km","color":"#DC2626"}},{"type":"Feature","geometry":{"type":"MultiLineString","coordinates":[[[115.4497,-20.79],[114.5,-20.9],[116.6683,-20.213],[116.6655,-20.1862],[116.555,-19.077],[116.4395,-17.9185],[115.5748,-9.2495],[115.6043,-9.0894],[116.2,-7.25],[116.8135,-5.7367],[116.8675,-5.603],[116.95,-5.4],[117.6988,-3.4957],[118.0193,-2.6812],[119.5003,1.1003],[119.6408,2.9827],[119.7023,3.8055],[119.9675,7.3125],[120.05,8.4],[119.9035,14.2663],[119.9,14.4],[119.4003,17.0005],[120,19],[120.4285,19.8248],[121.4633,21.8155],[123.415,25.5708],[123.5463,25.8238],[123.5365,25.8808],[123.2905,27.3],[123.195,27.85],[123.0928,28.4395],[123.0815,28.5043],[122.9568,29.2238],[123.0908,29.8435],[123.3073,30.8463],[123.3255,30.9308],[123.6605,31.3128],[124.5338,32.308],[124.751,32.442],[126.5398,33.5458],[127.6,34.2],[129.0973,34.9485],[129.2,35],[130,36.4],[129.3,37.9],[129.3502,37.1683]]]},"properties":{"feature_type":"route","route_id":"R334","from_terminal":"Gorgon LNG Terminal","to_terminal":"Samcheok LNG Terminal","from_node_id":"LNGN0142","to_node_id":"LNGN0354","minimum_distance_km":11.536,"sensitivity_band":"between_10_and_25km","color":"#F59E0B"}},{"type":"Feature","geometry":{"type":"MultiLineString","coordinates":[[[113.2193,21.906],[113.5658,22.189],[113.6213,22.138],[113.6338,21.961],[113.7458,21.8328],[114.1136,21.7053],[119.6373,19.166],[119.6083,18.903],[119.5648,18.5048],[119.4003,17.0005],[119.9,14.4],[119.9035,14.2663],[120.05,8.4],[119.9675,7.3125],[119.7023,3.8055],[119.6408,2.9827],[119.5003,1.1003],[118.0193,-2.6812],[117.6988,-3.4957],[116.95,-5.4],[116.8675,-5.603],[116.8135,-5.7367],[116.2,-7.25],[115.6043,-9.0894],[115.5748,-9.2495],[116.4395,-17.9185],[116.555,-19.077],[116.6655,-20.1862],[116.6683,-20.213],[114.5,-20.9],[115.4497,-20.79]]]},"properties":{"feature_type":"route","route_id":"R336","from_terminal":"Gorgon LNG Terminal","to_terminal":"Zhuhai LNG Terminal","from_node_id":"LNGN0142","to_node_id":"LNGN0473","minimum_distance_km":11.536,"sensitivity_band":"between_10_and_25km","color":"#F59E0B"}},{"type":"Feature","geometry":{"type":"MultiLineString","coordinates":[[[122.2825,30.1006],[122.3663,30.1485],[122.2245,29.8365],[121.3,27.8],[120,25.7],[120,25.337],[120,24.6335],[119.7533,22.4557],[119.724,22.1985],[119.723,22.0813],[119.7043,19.7805],[119.6675,19.4433],[119.6373,19.166],[119.6083,18.903],[119.5648,18.5048],[119.4003,17.0005],[119.9,14.4],[119.9035,14.2663],[120.05,8.4],[119.9675,7.3125],[119.7023,3.8055],[119.6408,2.9827],[119.5003,1.1003],[118.0193,-2.6812],[117.6988,-3.4957],[116.95,-5.4],[116.8675,-5.603],[116.8135,-5.7367],[116.2,-7.25],[115.6043,-9.0894],[115.5748,-9.2495],[116.4395,-17.9185],[116.555,-19.077],[116.6655,-20.1862],[116.6683,-20.213],[114.5,-20.9],[114.1373,-21.5181],[114.282,-21.7115],[114.2265,-22.0987],[115.0011,-21.6979]]]},"properties":{"feature_type":"route","route_id":"R355","from_terminal":"Wheatstone LNG Terminal","to_terminal":"Zhoushan LNG Terminal","from_node_id":"LNGN0441","to_node_id":"LNGN0472","minimum_distance_km":11.536,"sensitivity_band":"between_10_and_25km","color":"#F59E0B"}},{"type":"Feature","geometry":{"type":"MultiLineString","coordinates":[[[110.0577,19.9776],[111.35,20.4],[113.1995,19.6188],[113.667,19.4215],[116.6383,18.1665],[118.5558,17.3565],[119.4003,17.0005],[119.9,14.4],[119.9035,14.2663],[120.05,8.4],[119.9675,7.3125],[119.7023,3.8055],[119.6408,2.9827],[119.5003,1.1003],[118.0193,-2.6812],[117.6988,-3.4957],[116.95,-5.4],[116.8675,-5.603],[116.8135,-5.7367],[116.2,-7.25],[115.6043,-9.0894],[115.5748,-9.2495],[116.4395,-17.9185],[116.555,-19.077],[116.6655,-20.1862],[116.6683,-20.213],[114.5,-20.9],[115.4497,-20.79]]]},"properties":{"feature_type":"route","route_id":"R390","from_terminal":"Gorgon LNG Terminal","to_terminal":"Hainan Shennan LNG Storage Facility","from_node_id":"LNGN0142","to_node_id":"LNGN0163","minimum_distance_km":11.536,"sensitivity_band":"between_10_and_25km","color":"#F59E0B"}},{"type":"Feature","geometry":{"type":"MultiLineString","coordinates":[[[121.7469,32.0418],[121.2815,32.687],[121.7785,32.8843],[122.9,31.3],[122.7495,30.985],[122.6775,30.8345],[122.3663,30.1485],[122.2245,29.8365],[121.3,27.8],[120,25.7],[120,25.337],[120,24.6335],[119.7533,22.4557],[119.724,22.1985],[119.723,22.0813],[119.7043,19.7805],[119.6675,19.4433],[119.6373,19.166],[119.6083,18.903],[119.5648,18.5048],[119.4003,17.0005],[119.9,14.4],[119.9035,14.2663],[120.05,8.4],[119.9675,7.3125],[119.7023,3.8055],[119.6408,2.9827],[119.5003,1.1003],[118.0193,-2.6812],[117.6988,-3.4957],[116.95,-5.4],[116.8675,-5.603],[116.8135,-5.7367],[116.2,-7.25],[115.6043,-9.0894],[115.5748,-9.2495],[116.4395,-17.9185],[116.555,-19.077],[116.6655,-20.1862],[116.6683,-20.213],[116.7295,-20.6225],[116.7656,-20.6128]]]},"properties":{"feature_type":"route","route_id":"R403","from_terminal":"Pluto LNG Terminal","to_terminal":"Qidong LNG Terminal","from_node_id":"LNGN0297","to_node_id":"LNGN0319","minimum_distance_km":11.536,"sensitivity_band":"between_10_and_25km","color":"#F59E0B"}},{"type":"Feature","geometry":{"type":"MultiLineString","coordinates":[[[121.0832,28.0049],[121.3,27.8],[120,25.7],[120,25.337],[120,24.6335],[119.7533,22.4557],[119.724,22.1985],[119.723,22.0813],[119.7043,19.7805],[119.6675,19.4433],[119.6373,19.166],[119.6083,18.903],[119.5648,18.5048],[119.4003,17.0005],[119.9,14.4],[119.9035,14.2663],[120.05,8.4],[119.9675,7.3125],[119.7023,3.8055],[119.6408,2.9827],[119.5003,1.1003],[118.0193,-2.6812],[117.6988,-3.4957],[116.95,-5.4],[116.8675,-5.603],[116.8135,-5.7367],[116.2,-7.25],[115.6043,-9.0894],[115.5748,-9.2495],[116.4395,-17.9185],[116.555,-19.077],[116.6655,-20.1862],[116.6683,-20.213],[116.7295,-20.6225],[116.7656,-20.6128]]]},"properties":{"feature_type":"route","route_id":"R404","from_terminal":"Pluto LNG Terminal","to_terminal":"Wenzhou LNG Terminal","from_node_id":"LNGN0297","to_node_id":"LNGN0437","minimum_distance_km":11.536,"sensitivity_band":"between_10_and_25km","color":"#F59E0B"}},{"type":"Feature","geometry":{"type":"MultiLineString","coordinates":[[[123.5382,-15.2539],[122.8643,-15.0297],[122.3615,-11.4395],[122.3,-11],[123.2185,-9.415],[124.548,-8.6555],[125.4255,-8.1565],[125.4378,-8.0685],[125.4503,-7.9815],[125.4658,-7.8715],[125.5745,-7.1015],[125.5743,-7.0339],[125.289,-5.055],[125.23,-4.6312],[125.1,-3.7],[125.362,-0.4892],[125.5,1.2],[123.6548,4.1413],[121.8915,6.9468],[121.7625,8.7195],[121.6135,11.2173],[121.4458,11.532],[119.9,14.4],[119.4003,17.0005],[119.5648,18.5048],[119.6083,18.903],[119.6373,19.166],[119.6675,19.4433],[119.7043,19.7805],[119.723,22.0813],[119.724,22.1985],[119.7533,22.4557],[120,24.6335],[120,25.337],[120,25.7],[121.3,27.8],[121.0832,28.0049]]]},"properties":{"feature_type":"route","route_id":"R408","from_terminal":"Prelude FLNG Terminal","to_terminal":"Wenzhou LNG Terminal","from_node_id":"LNGN0309","to_node_id":"LNGN0437","minimum_distance_km":5.22,"sensitivity_band":"within_10km","color":"#DC2626"}},{"type":"Feature","geometry":{"type":"MultiLineString","coordinates":[[[126.4947,36.415],[126.074,37.5263],[125.5,37.4],[125.5,36],[125.6,34.4],[124.4898,33.1253],[122.9,31.3],[122.7495,30.985],[122.6775,30.8345],[122.3663,30.1485],[122.2245,29.8365],[121.3,27.8],[120,25.7],[120,25.337],[120,24.6335],[119.7533,22.4557],[119.724,22.1985],[119.723,22.0813],[119.7043,19.7805],[119.6675,19.4433],[119.6373,19.166],[119.6083,18.903],[119.5648,18.5048],[119.4003,17.0005],[119.9,14.4],[119.9035,14.2663],[120.05,8.4],[119.9675,7.3125],[119.7023,3.8055],[119.6408,2.9827],[119.5003,1.1003],[118.0193,-2.6812],[117.6988,-3.4957],[116.95,-5.4],[116.8675,-5.603],[116.8135,-5.7367],[116.2,-7.25],[115.6043,-9.0894],[115.5748,-9.2495],[116.4395,-17.9185],[116.555,-19.077],[116.6655,-20.1862],[116.6683,-20.213],[114.5,-20.9],[114.1373,-21.5181],[114.282,-21.7115],[114.2265,-22.0987],[115.0011,-21.6979]]]},"properties":{"feature_type":"route","route_id":"R427","from_terminal":"Wheatstone LNG Terminal","to_terminal":"Boryeong LNG Terminal","from_node_id":"LNGN0441","to_node_id":"LNGN0040","minimum_distance_km":11.536,"sensitivity_band":"between_10_and_25km","color":"#F59E0B"}},{"type":"Feature","geometry":{"type":"MultiLineString","coordinates":[[[121.7469,32.0418],[121.2815,32.687],[121.7785,32.8843],[122.9,31.3],[122.7495,30.985],[122.6775,30.8345],[122.3663,30.1485],[122.2245,29.8365],[121.3,27.8],[120,25.7],[120,25.337],[120,24.6335],[119.7533,22.4557],[119.724,22.1985],[119.723,22.0813],[119.7043,19.7805],[119.6675,19.4433],[119.6373,19.166],[119.6083,18.903],[119.5648,18.5048],[119.4003,17.0005],[119.9,14.4],[119.9035,14.2663],[120.05,8.4],[119.9675,7.3125],[119.7023,3.8055],[119.6408,2.9827],[119.5003,1.1003],[118.0193,-2.6812],[117.6988,-3.4957],[116.95,-5.4],[116.8675,-5.603],[116.8135,-5.7367],[116.2,-7.25],[115.6043,-9.0894],[115.5748,-9.2495],[116.4395,-17.9185],[116.555,-19.077],[116.6655,-20.1862],[116.6683,-20.213],[114.5,-20.9],[114.1373,-21.5181],[114.282,-21.7115],[114.2265,-22.0987],[115.0011,-21.6979]]]},"properties":{"feature_type":"route","route_id":"R428","from_terminal":"Wheatstone LNG Terminal","to_terminal":"Qidong LNG Terminal","from_node_id":"LNGN0441","to_node_id":"LNGN0319","minimum_distance_km":11.536,"sensitivity_band":"between_10_and_25km","color":"#F59E0B"}},{"type":"Feature","geometry":{"type":"MultiLineString","coordinates":[[[121.8841,38.9604],[121.6349,38.9336],[121.707,38.9448],[121.9068,38.694],[122.1728,38.3218],[122.5598,37.8615],[123.1985,37.102],[123.1208,35.568],[123.072,34.6245],[123.007,33.3715],[122.9,31.3],[122.7495,30.985],[122.6775,30.8345],[122.3663,30.1485],[122.2245,29.8365],[121.3,27.8],[120,25.7],[120,25.337],[120,24.6335],[119.7533,22.4557],[119.724,22.1985],[119.723,22.0813],[119.7043,19.7805],[119.6675,19.4433],[119.6373,19.166],[119.6083,18.903],[119.5648,18.5048],[119.4003,17.0005],[119.9,14.4],[119.9035,14.2663],[120.05,8.4],[119.9675,7.3125],[119.7023,3.8055],[119.6408,2.9827],[119.5003,1.1003],[118.0193,-2.6812],[117.6988,-3.4957],[116.95,-5.4],[116.8675,-5.603],[116.8135,-5.7367],[116.2,-7.25],[115.6043,-9.0894],[115.5748,-9.2495],[116.4395,-17.9185],[116.555,-19.077],[116.6655,-20.1862],[116.6683,-20.213],[114.5,-20.9],[115.4497,-20.79]]]},"properties":{"feature_type":"route","route_id":"R495","from_terminal":"Gorgon LNG Terminal","to_terminal":"Dalian LNG Terminal","from_node_id":"LNGN0142","to_node_id":"LNGN0081","minimum_distance_km":11.536,"sensitivity_band":"between_10_and_25km","color":"#F59E0B"}},{"type":"Feature","geometry":{"type":"MultiLineString","coordinates":[[[113.9637,22.1543],[114.1648,22.294],[114.1085,22.2863],[114.0715,22.2025],[114.0875,22.0065],[114.253,21.772],[114.1136,21.7053],[119.6373,19.166],[119.6083,18.903],[119.5648,18.5048],[119.4003,17.0005],[119.9,14.4],[119.9035,14.2663],[120.05,8.4],[119.9675,7.3125],[119.7023,3.8055],[119.6408,2.9827],[119.5003,1.1003],[118.0193,-2.6812],[117.6988,-3.4957],[116.95,-5.4],[116.8675,-5.603],[116.8135,-5.7367],[116.2,-7.25],[115.6043,-9.0894],[115.5748,-9.2495],[116.4395,-17.9185],[116.555,-19.077],[116.6655,-20.1862],[116.6683,-20.213],[114.5,-20.9],[115.4497,-20.79]]]},"properties":{"feature_type":"route","route_id":"R496","from_terminal":"Gorgon LNG Terminal","to_terminal":"Hong Kong FSRU","from_node_id":"LNGN0142","to_node_id":"LNGN0175","minimum_distance_km":11.536,"sensitivity_band":"between_10_and_25km","color":"#F59E0B"}},{"type":"Feature","geometry":{"type":"MultiLineString","coordinates":[[[120.4959,24.253],[120,24.6335],[119.7533,22.4557],[119.724,22.1985],[119.723,22.0813],[119.7043,19.7805],[119.6675,19.4433],[119.6373,19.166],[119.6083,18.903],[119.5648,18.5048],[119.4003,17.0005],[119.9,14.4],[119.9035,14.2663],[120.05,8.4],[119.9675,7.3125],[119.7023,3.8055],[119.6408,2.9827],[119.5003,1.1003],[118.0193,-2.6812],[117.6988,-3.4957],[116.95,-5.4],[116.8675,-5.603],[116.8135,-5.7367],[116.2,-7.25],[115.6043,-9.0894],[115.5748,-9.2495],[116.4395,-17.9185],[116.555,-19.077],[116.6655,-20.1862],[116.6683,-20.213],[114.5,-20.9],[115.4497,-20.79]]]},"properties":{"feature_type":"route","route_id":"R498","from_terminal":"Gorgon LNG Terminal","to_terminal":"Taichung LNG Terminal","from_node_id":"LNGN0142","to_node_id":"LNGN0398","minimum_distance_km":11.536,"sensitivity_band":"between_10_and_25km","color":"#F59E0B"}},{"type":"Feature","geometry":{"type":"MultiLineString","coordinates":[[[119.7597,35.5862],[120.2858,36.086],[120.272,36.0303],[121.0345,35.9205],[121,35.9],[121.468,34.767],[122.18,33.0435],[122.9,31.3],[122.7495,30.985],[122.6775,30.8345],[122.3663,30.1485],[122.2245,29.8365],[121.3,27.8],[120,25.7],[120,25.337],[120,24.6335],[119.7533,22.4557],[119.724,22.1985],[119.723,22.0813],[119.7043,19.7805],[119.6675,19.4433],[119.6373,19.166],[119.6083,18.903],[119.5648,18.5048],[119.4003,17.0005],[119.9,14.4],[119.9035,14.2663],[120.05,8.4],[119.9675,7.3125],[119.7023,3.8055],[119.6408,2.9827],[119.5003,1.1003],[118.0193,-2.6812],[117.6988,-3.4957],[116.95,-5.4],[116.8675,-5.603],[116.8135,-5.7367],[116.2,-7.25],[115.6043,-9.0894],[115.5748,-9.2495],[116.4395,-17.9185],[116.555,-19.077],[116.6655,-20.1862],[116.6683,-20.213],[116.7295,-20.6225],[116.7656,-20.6128]]]},"properties":{"feature_type":"route","route_id":"R518","from_terminal":"Pluto LNG Terminal","to_terminal":"Shandong LNG Terminal","from_node_id":"LNGN0297","to_node_id":"LNGN0363","minimum_distance_km":11.536,"sensitivity_band":"between_10_and_25km","color":"#F59E0B"}},{"type":"Feature","geometry":{"type":"MultiLineString","coordinates":[[[121.7072,31.2937],[121.4838,31.2398],[121.5645,31.2813],[121.4995,31.3825],[121.581,31.3963],[121.7063,31.3345],[121.8195,31.2015],[122.3423,31.039],[122.7495,30.985],[122.6775,30.8345],[122.3663,30.1485],[122.2245,29.8365],[121.3,27.8],[120,25.7],[120,25.337],[120,24.6335],[119.7533,22.4557],[119.724,22.1985],[119.723,22.0813],[119.7043,19.7805],[119.6675,19.4433],[119.6373,19.166],[119.6083,18.903],[119.5648,18.5048],[119.4003,17.0005],[119.9,14.4],[119.9035,14.2663],[120.05,8.4],[119.9675,7.3125],[119.7023,3.8055],[119.6408,2.9827],[119.5003,1.1003],[118.0193,-2.6812],[117.6988,-3.4957],[116.95,-5.4],[116.8675,-5.603],[116.8135,-5.7367],[116.2,-7.25],[115.6043,-9.0894],[115.5748,-9.2495],[116.4395,-17.9185],[116.555,-19.077],[116.6655,-20.1862],[116.6683,-20.213],[116.7295,-20.6225],[116.7656,-20.6128]]]},"properties":{"feature_type":"route","route_id":"R519","from_terminal":"Pluto LNG Terminal","to_terminal":"Wuhaogou LNG Storage Facility","from_node_id":"LNGN0297","to_node_id":"LNGN0447","minimum_distance_km":11.536,"sensitivity_band":"between_10_and_25km","color":"#F59E0B"}},{"type":"Feature","geometry":{"type":"MultiLineString","coordinates":[[[113.2193,21.906],[113.5658,22.189],[113.6213,22.138],[113.6338,21.961],[113.7458,21.8328],[114.1136,21.7053],[119.6373,19.166],[119.6083,18.903],[119.5648,18.5048],[119.4003,17.0005],[119.9,14.4],[119.9035,14.2663],[120.05,8.4],[119.9675,7.3125],[119.7023,3.8055],[119.6408,2.9827],[119.5003,1.1003],[118.0193,-2.6812],[117.6988,-3.4957],[116.95,-5.4],[116.8675,-5.603],[116.8135,-5.7367],[116.2,-7.25],[115.6043,-9.0894],[115.5748,-9.2495],[116.4395,-17.9185],[116.555,-19.077],[116.6655,-20.1862],[116.6683,-20.213],[116.7295,-20.6225],[116.7656,-20.6128]]]},"properties":{"feature_type":"route","route_id":"R520","from_terminal":"Pluto LNG Terminal","to_terminal":"Zhuhai LNG Terminal","from_node_id":"LNGN0297","to_node_id":"LNGN0473","minimum_distance_km":11.536,"sensitivity_band":"between_10_and_25km","color":"#F59E0B"}},{"type":"Feature","geometry":{"type":"MultiLineString","coordinates":[[[126.7841,37.0057],[126.074,37.5263],[125.5,37.4],[125.5,36],[125.6,34.4],[124.4898,33.1253],[122.9,31.3],[122.7495,30.985],[122.6775,30.8345],[122.3663,30.1485],[122.2245,29.8365],[121.3,27.8],[120,25.7],[120,25.337],[120,24.6335],[119.7533,22.4557],[119.724,22.1985],[119.723,22.0813],[119.7043,19.7805],[119.6675,19.4433],[119.6373,19.166],[119.6083,18.903],[119.5648,18.5048],[119.4003,17.0005],[119.9,14.4],[119.9035,14.2663],[120.05,8.4],[119.9675,7.3125],[119.7023,3.8055],[119.6408,2.9827],[119.5003,1.1003],[118.0193,-2.6812],[117.6988,-3.4957],[116.95,-5.4],[116.8675,-5.603],[116.8135,-5.7367],[116.2,-7.25],[115.6043,-9.0894],[115.5748,-9.2495],[116.4395,-17.9185],[116.555,-19.077],[116.6655,-20.1862],[116.6683,-20.213],[114.5,-20.9],[114.1373,-21.5181],[114.282,-21.7115],[114.2265,-22.0987],[115.0011,-21.6979]]]},"properties":{"feature_type":"route","route_id":"R546","from_terminal":"Wheatstone LNG Terminal","to_terminal":"Pyeongtaek LNG Terminal","from_node_id":"LNGN0441","to_node_id":"LNGN0314","minimum_distance_km":11.536,"sensitivity_band":"between_10_and_25km","color":"#F59E0B"}},{"type":"Feature","geometry":{"type":"MultiLineString","coordinates":[[[117.7149,38.7492],[117.7005,38.9848],[118.9898,38.7288],[120.7763,38.4848],[121.1903,38.4365],[122.1825,37.8155],[123.1985,37.102],[123.1208,35.568],[123.072,34.6245],[123.007,33.3715],[122.9,31.3],[122.7495,30.985],[122.6775,30.8345],[122.3663,30.1485],[122.2245,29.8365],[121.3,27.8],[120,25.7],[120,25.337],[120,24.6335],[119.7533,22.4557],[119.724,22.1985],[119.723,22.0813],[119.7043,19.7805],[119.6675,19.4433],[119.6373,19.166],[119.6083,18.903],[119.5648,18.5048],[119.4003,17.0005],[119.9,14.4],[119.9035,14.2663],[120.05,8.4],[119.9675,7.3125],[119.7023,3.8055],[119.6408,2.9827],[119.5003,1.1003],[118.0193,-2.6812],[117.6988,-3.4957],[116.95,-5.4],[116.8675,-5.603],[116.8135,-5.7367],[116.2,-7.25],[115.6043,-9.0894],[115.5748,-9.2495],[116.4395,-17.9185],[116.555,-19.077],[116.6655,-20.1862],[116.6683,-20.213],[114.5,-20.9],[114.1373,-21.5181],[114.282,-21.7115],[114.2265,-22.0987],[115.0011,-21.6979]]]},"properties":{"feature_type":"route","route_id":"R547","from_terminal":"Wheatstone LNG Terminal","to_terminal":"Tianjin LNG Terminal (Sinopec)","from_node_id":"LNGN0441","to_node_id":"LNGN0421","minimum_distance_km":11.536,"sensitivity_band":"between_10_and_25km","color":"#F59E0B"}},{"type":"Feature","geometry":{"type":"MultiLineString","coordinates":[[[128.4255,34.9474],[129.037,35.0918],[129.0973,34.9485],[127.6,34.2],[126.5398,33.5458],[124.751,32.442],[124.5338,32.308],[123.6605,31.3128],[123.3255,30.9308],[123.3073,30.8463],[123.0908,29.8435],[122.9568,29.2238],[123.0815,28.5043],[123.0928,28.4395],[123.195,27.85],[123.2905,27.3],[123.5365,25.8808],[123.5463,25.8238],[123.415,25.5708],[121.4633,21.8155],[120.4285,19.8248],[120,19],[119.4003,17.0005],[119.9,14.4],[119.9035,14.2663],[120.05,8.4],[119.9675,7.3125],[119.7023,3.8055],[119.6408,2.9827],[119.5003,1.1003],[118.0193,-2.6812],[117.6988,-3.4957],[116.95,-5.4],[116.8675,-5.603],[116.8135,-5.7367],[116.2,-7.25],[115.6043,-9.0894],[115.5748,-9.2495],[116.4395,-17.9185],[116.555,-19.077],[116.6655,-20.1862],[116.6683,-20.213],[114.5,-20.9],[114.1373,-21.5181],[114.282,-21.7115],[114.2265,-22.0987],[115.0011,-21.6979]]]},"properties":{"feature_type":"route","route_id":"R548","from_terminal":"Wheatstone LNG Terminal","to_terminal":"Tongyoung LNG Terminal","from_node_id":"LNGN0441","to_node_id":"LNGN0426","minimum_distance_km":11.536,"sensitivity_band":"between_10_and_25km","color":"#F59E0B"}},{"type":"Feature","geometry":{"type":"MultiLineString","coordinates":[[[121.8841,38.9604],[121.6349,38.9336],[121.707,38.9448],[121.9068,38.694],[122.1728,38.3218],[122.5598,37.8615],[123.1985,37.102],[123.1208,35.568],[123.072,34.6245],[123.007,33.3715],[122.9,31.3],[122.7495,30.985],[122.6775,30.8345],[122.3663,30.1485],[122.2245,29.8365],[121.3,27.8],[120,25.7],[120,25.337],[120,24.6335],[119.7533,22.4557],[119.724,22.1985],[119.723,22.0813],[119.7043,19.7805],[119.6675,19.4433],[119.6373,19.166],[119.6083,18.903],[119.5648,18.5048],[119.4003,17.0005],[119.9,14.4],[119.9035,14.2663],[120.05,8.4],[119.9675,7.3125],[119.7023,3.8055],[119.6408,2.9827],[119.5003,1.1003],[118.0193,-2.6812],[117.6988,-3.4957],[116.95,-5.4],[116.8675,-5.603],[116.8135,-5.7367],[116.2,-7.25],[115.6043,-9.0894],[115.5748,-9.2495],[116.4395,-17.9185],[116.555,-19.077],[116.6655,-20.1862],[116.6683,-20.213],[116.7295,-20.6225],[116.7656,-20.6128]]]},"properties":{"feature_type":"route","route_id":"R631","from_terminal":"Pluto LNG Terminal","to_terminal":"Dalian LNG Terminal","from_node_id":"LNGN0297","to_node_id":"LNGN0081","minimum_distance_km":11.536,"sensitivity_band":"between_10_and_25km","color":"#F59E0B"}},{"type":"Feature","geometry":{"type":"MultiLineString","coordinates":[[[110.0577,19.9776],[111.35,20.4],[113.1995,19.6188],[113.667,19.4215],[116.6383,18.1665],[118.5558,17.3565],[119.4003,17.0005],[119.9,14.4],[119.9035,14.2663],[120.05,8.4],[119.9675,7.3125],[119.7023,3.8055],[119.6408,2.9827],[119.5003,1.1003],[118.0193,-2.6812],[117.6988,-3.4957],[116.95,-5.4],[116.8675,-5.603],[116.8135,-5.7367],[116.2,-7.25],[115.6043,-9.0894],[115.5748,-9.2495],[116.4395,-17.9185],[116.555,-19.077],[116.6655,-20.1862],[116.6683,-20.213],[116.7295,-20.6225],[116.7656,-20.6128]]]},"properties":{"feature_type":"route","route_id":"R632","from_terminal":"Pluto LNG Terminal","to_terminal":"Hainan Shennan LNG Storage Facility","from_node_id":"LNGN0297","to_node_id":"LNGN0163","minimum_distance_km":11.536,"sensitivity_band":"between_10_and_25km","color":"#F59E0B"}},{"type":"Feature","geometry":{"type":"MultiLineString","coordinates":[[[113.9637,22.1543],[114.1648,22.294],[114.1085,22.2863],[114.0715,22.2025],[114.0875,22.0065],[114.253,21.772],[114.1136,21.7053],[119.6373,19.166],[119.6083,18.903],[119.5648,18.5048],[119.4003,17.0005],[119.9,14.4],[119.9035,14.2663],[120.05,8.4],[119.9675,7.3125],[119.7023,3.8055],[119.6408,2.9827],[119.5003,1.1003],[118.0193,-2.6812],[117.6988,-3.4957],[116.95,-5.4],[116.8675,-5.603],[116.8135,-5.7367],[116.2,-7.25],[115.6043,-9.0894],[115.5748,-9.2495],[116.4395,-17.9185],[116.555,-19.077],[116.6655,-20.1862],[116.6683,-20.213],[116.7295,-20.6225],[116.7656,-20.6128]]]},"properties":{"feature_type":"route","route_id":"R633","from_terminal":"Pluto LNG Terminal","to_terminal":"Hong Kong FSRU","from_node_id":"LNGN0297","to_node_id":"LNGN0175","minimum_distance_km":11.536,"sensitivity_band":"between_10_and_25km","color":"#F59E0B"}},{"type":"Feature","geometry":{"type":"MultiLineString","coordinates":[[[120.4959,24.253],[120,24.6335],[119.7533,22.4557],[119.724,22.1985],[119.723,22.0813],[119.7043,19.7805],[119.6675,19.4433],[119.6373,19.166],[119.6083,18.903],[119.5648,18.5048],[119.4003,17.0005],[119.9,14.4],[119.9035,14.2663],[120.05,8.4],[119.9675,7.3125],[119.7023,3.8055],[119.6408,2.9827],[119.5003,1.1003],[118.0193,-2.6812],[117.6988,-3.4957],[116.95,-5.4],[116.8675,-5.603],[116.8135,-5.7367],[116.2,-7.25],[115.6043,-9.0894],[115.5748,-9.2495],[116.4395,-17.9185],[116.555,-19.077],[116.6655,-20.1862],[116.6683,-20.213],[114.5,-20.9],[114.1373,-21.5181],[114.282,-21.7115],[114.2265,-22.0987],[115.0011,-21.6979]]]},"properties":{"feature_type":"route","route_id":"R672","from_terminal":"Wheatstone LNG Terminal","to_terminal":"Taichung LNG Terminal","from_node_id":"LNGN0441","to_node_id":"LNGN0398","minimum_distance_km":11.536,"sensitivity_band":"between_10_and_25km","color":"#F59E0B"}},{"type":"Feature","geometry":{"type":"MultiLineString","coordinates":[[[121.0832,28.0049],[121.3,27.8],[120,25.7],[120,25.337],[120,24.6335],[119.7533,22.4557],[119.724,22.1985],[119.723,22.0813],[119.7043,19.7805],[119.6675,19.4433],[119.6373,19.166],[119.6083,18.903],[119.5648,18.5048],[119.4003,17.0005],[119.9,14.4],[119.9035,14.2663],[120.05,8.4],[119.9675,7.3125],[119.7023,3.8055],[119.6408,2.9827],[119.5003,1.1003],[118.0193,-2.6812],[117.6988,-3.4957],[116.95,-5.4],[116.8675,-5.603],[116.8135,-5.7367],[116.2,-7.25],[115.6043,-9.0894],[115.5748,-9.2495],[116.4395,-17.9185],[116.555,-19.077],[116.6655,-20.1862],[116.6683,-20.213],[114.5,-20.9],[114.1373,-21.5181],[114.282,-21.7115],[114.2265,-22.0987],[115.0011,-21.6979]]]},"properties":{"feature_type":"route","route_id":"R673","from_terminal":"Wheatstone LNG Terminal","to_terminal":"Wenzhou LNG Terminal","from_node_id":"LNGN0441","to_node_id":"LNGN0437","minimum_distance_km":11.536,"sensitivity_band":"between_10_and_25km","color":"#F59E0B"}},{"type":"Feature","geometry":{"type":"MultiLineString","coordinates":[[[119.7597,35.5862],[120.2858,36.086],[120.272,36.0303],[121.0345,35.9205],[121,35.9],[121.468,34.767],[122.18,33.0435],[122.9,31.3],[122.7495,30.985],[122.6775,30.8345],[122.3663,30.1485],[122.2245,29.8365],[121.3,27.8],[120,25.7],[120,25.337],[120,24.6335],[119.7533,22.4557],[119.724,22.1985],[119.723,22.0813],[119.7043,19.7805],[119.6675,19.4433],[119.6373,19.166],[119.6083,18.903],[119.5648,18.5048],[119.4003,17.0005],[119.9,14.4],[119.9035,14.2663],[120.05,8.4],[119.9675,7.3125],[119.7023,3.8055],[119.6408,2.9827],[119.5003,1.1003],[118.0193,-2.6812],[117.6988,-3.4957],[116.95,-5.4],[116.8675,-5.603],[116.8135,-5.7367],[116.2,-7.25],[115.6043,-9.0894],[115.5748,-9.2495],[116.4395,-17.9185],[116.555,-19.077],[116.6655,-20.1862],[116.6683,-20.213],[114.5,-20.9],[115.4497,-20.79]]]},"properties":{"feature_type":"route","route_id":"R844","from_terminal":"Gorgon LNG Terminal","to_terminal":"Shandong LNG Terminal","from_node_id":"LNGN0142","to_node_id":"LNGN0363","minimum_distance_km":11.536,"sensitivity_band":"between_10_and_25km","color":"#F59E0B"}},{"type":"Feature","geometry":{"type":"MultiLineString","coordinates":[[[122.2361,-17.9619],[122.134,-17.9892],[121.7858,-16.9932],[123,-16],[122.8643,-15.0297],[122.3615,-11.4395],[122.3,-11],[123.2185,-9.415],[124.548,-8.6555],[125.4255,-8.1565],[125.4378,-8.0685],[125.4503,-7.9815],[125.4658,-7.8715],[125.5745,-7.1015],[125.5743,-7.0339],[125.289,-5.055],[125.23,-4.6312],[125.1,-3.7],[125.362,-0.4892],[125.5,1.2],[123.6548,4.1413],[121.8915,6.9468],[121.7625,8.7195],[121.6135,11.2173],[121.4458,11.532],[119.9,14.4],[119.4003,17.0005],[119.5648,18.5048],[119.6083,18.903],[119.6373,19.166],[119.6675,19.4433],[119.7043,19.7805],[119.723,22.0813],[119.724,22.1985],[119.7533,22.4557],[120.2054,22.8093]]]},"properties":{"feature_type":"route","route_id":"R859","from_terminal":"Ichthys FLNG Terminal","to_terminal":"Yung-An LNG Terminal","from_node_id":"LNGN0180","to_node_id":"LNGN0463","minimum_distance_km":5.22,"sensitivity_band":"within_10km","color":"#DC2626"}},{"type":"Feature","geometry":{"type":"MultiLineString","coordinates":[[[127.7815,34.889],[127.6,34.2],[126.5398,33.5458],[124.751,32.442],[124.5338,32.308],[123.6605,31.3128],[123.3255,30.9308],[123.3073,30.8463],[123.0908,29.8435],[122.9568,29.2238],[123.0815,28.5043],[123.0928,28.4395],[123.195,27.85],[123.2905,27.3],[123.5365,25.8808],[123.5463,25.8238],[123.415,25.5708],[121.4633,21.8155],[120.4285,19.8248],[120,19],[119.4003,17.0005],[119.9,14.4],[119.9035,14.2663],[120.05,8.4],[119.9675,7.3125],[119.7023,3.8055],[119.6408,2.9827],[119.5003,1.1003],[118.0193,-2.6812],[117.6988,-3.4957],[116.95,-5.4],[116.8675,-5.603],[116.8135,-5.7367],[116.2,-7.25],[115.6043,-9.0894],[115.5748,-9.2495],[116.4395,-17.9185],[116.555,-19.077],[116.6655,-20.1862],[116.6683,-20.213],[116.7295,-20.6225],[116.7656,-20.6128]]]},"properties":{"feature_type":"route","route_id":"R931","from_terminal":"Pluto LNG Terminal","to_terminal":"Gwangyang LNG Terminal","from_node_id":"LNGN0297","to_node_id":"LNGN0156","minimum_distance_km":11.536,"sensitivity_band":"between_10_and_25km","color":"#F59E0B"}},{"type":"Feature","geometry":{"type":"MultiLineString","coordinates":[[[116.7656,-20.6128],[116.7295,-20.6225],[116.6683,-20.213],[116.6655,-20.1862],[116.555,-19.077],[116.4395,-17.9185],[115.5748,-9.2495],[115.6043,-9.0894],[116.2,-7.25],[116.8135,-5.7367],[116.8675,-5.603],[116.95,-5.4],[117.6988,-3.4957],[118.0193,-2.6812],[119.5003,1.1003],[119.6408,2.9827],[119.7023,3.8055],[119.9675,7.3125],[120.05,8.4],[119.9035,14.2663],[119.9,14.4],[119.4003,17.0005],[120,19],[120.4285,19.8248],[121.4633,21.8155],[123.415,25.5708],[123.5463,25.8238],[123.5365,25.8808],[123.2905,27.3],[123.195,27.85],[123.0928,28.4395],[123.0815,28.5043],[122.9568,29.2238],[123.0908,29.8435],[123.3073,30.8463],[123.3255,30.9308],[123.6605,31.3128],[124.5338,32.308],[124.751,32.442],[126.5398,33.5458],[127.6,34.2],[129.0973,34.9485],[129.2,35],[130,36.4],[129.3,37.9],[129.3502,37.1683]]]},"properties":{"feature_type":"route","route_id":"R933","from_terminal":"Pluto LNG Terminal","to_terminal":"Samcheok LNG Terminal","from_node_id":"LNGN0297","to_node_id":"LNGN0354","minimum_distance_km":11.536,"sensitivity_band":"between_10_and_25km","color":"#F59E0B"}},{"type":"Feature","geometry":{"type":"MultiLineString","coordinates":[[[120.4959,24.253],[120,24.6335],[119.7533,22.4557],[119.724,22.1985],[119.723,22.0813],[119.7043,19.7805],[119.6675,19.4433],[119.6373,19.166],[119.6083,18.903],[119.5648,18.5048],[119.4003,17.0005],[119.9,14.4],[119.9035,14.2663],[120.05,8.4],[119.9675,7.3125],[119.7023,3.8055],[119.6408,2.9827],[119.5003,1.1003],[118.0193,-2.6812],[117.6988,-3.4957],[116.95,-5.4],[116.8675,-5.603],[116.8135,-5.7367],[116.2,-7.25],[115.6043,-9.0894],[115.5748,-9.2495],[116.4395,-17.9185],[116.555,-19.077],[116.6655,-20.1862],[116.6683,-20.213],[116.7295,-20.6225],[116.7656,-20.6128]]]},"properties":{"feature_type":"route","route_id":"R934","from_terminal":"Pluto LNG Terminal","to_terminal":"Taichung LNG Terminal","from_node_id":"LNGN0297","to_node_id":"LNGN0398","minimum_distance_km":11.536,"sensitivity_band":"between_10_and_25km","color":"#F59E0B"}},{"type":"Feature","geometry":{"type":"MultiLineString","coordinates":[[[118.5411,38.9387],[118.9898,38.7288],[120.7763,38.4848],[121.1903,38.4365],[122.1825,37.8155],[123.1985,37.102],[123.1208,35.568],[123.072,34.6245],[123.007,33.3715],[122.9,31.3],[122.7495,30.985],[122.6775,30.8345],[122.3663,30.1485],[122.2245,29.8365],[121.3,27.8],[120,25.7],[120,25.337],[120,24.6335],[119.7533,22.4557],[119.724,22.1985],[119.723,22.0813],[119.7043,19.7805],[119.6675,19.4433],[119.6373,19.166],[119.6083,18.903],[119.5648,18.5048],[119.4003,17.0005],[119.9,14.4],[119.9035,14.2663],[120.05,8.4],[119.9675,7.3125],[119.7023,3.8055],[119.6408,2.9827],[119.5003,1.1003],[118.0193,-2.6812],[117.6988,-3.4957],[116.95,-5.4],[116.8675,-5.603],[116.8135,-5.7367],[116.2,-7.25],[115.6043,-9.0894],[115.5748,-9.2495],[116.4395,-17.9185],[116.555,-19.077],[116.6655,-20.1862],[116.6683,-20.213],[116.7295,-20.6225],[116.7656,-20.6128]]]},"properties":{"feature_type":"route","route_id":"R935","from_terminal":"Pluto LNG Terminal","to_terminal":"Xintian Tangshan LNG Terminal","from_node_id":"LNGN0297","to_node_id":"LNGN0449","minimum_distance_km":11.536,"sensitivity_band":"between_10_and_25km","color":"#F59E0B"}},{"type":"Feature","geometry":{"type":"MultiLineString","coordinates":[[[122.2825,30.1006],[122.3663,30.1485],[122.2245,29.8365],[121.3,27.8],[120,25.7],[120,25.337],[120,24.6335],[119.7533,22.4557],[119.724,22.1985],[119.723,22.0813],[119.7043,19.7805],[119.6675,19.4433],[119.6373,19.166],[119.6083,18.903],[119.5648,18.5048],[119.4003,17.0005],[119.9,14.4],[119.9035,14.2663],[120.05,8.4],[119.9675,7.3125],[119.7023,3.8055],[119.6408,2.9827],[119.5003,1.1003],[118.0193,-2.6812],[117.6988,-3.4957],[116.95,-5.4],[116.8675,-5.603],[116.8135,-5.7367],[116.2,-7.25],[115.6043,-9.0894],[115.5748,-9.2495],[116.4395,-17.9185],[116.555,-19.077],[116.6655,-20.1862],[116.6683,-20.213],[116.7295,-20.6225],[116.7656,-20.6128]]]},"properties":{"feature_type":"route","route_id":"R936","from_terminal":"Pluto LNG Terminal","to_terminal":"Zhoushan LNG Terminal","from_node_id":"LNGN0297","to_node_id":"LNGN0472","minimum_distance_km":11.536,"sensitivity_band":"between_10_and_25km","color":"#F59E0B"}},{"type":"Feature","geometry":{"type":"MultiLineString","coordinates":[[[123.5382,-15.2539],[122.8643,-15.0297],[122.3615,-11.4395],[122.3,-11],[123.2185,-9.415],[124.548,-8.6555],[125.4255,-8.1565],[125.4378,-8.0685],[125.4503,-7.9815],[125.4658,-7.8715],[125.5745,-7.1015],[125.5743,-7.0339],[125.289,-5.055],[125.23,-4.6312],[125.1,-3.7],[125.362,-0.4892],[125.5,1.2],[123.6548,4.1413],[121.8915,6.9468],[121.7625,8.7195],[121.6135,11.2173],[121.4458,11.532],[119.9,14.4],[119.4003,17.0005],[119.5648,18.5048],[119.6083,18.903],[119.6373,19.166],[114.1136,21.7053],[114.253,21.772],[114.0875,22.0065],[114.0715,22.2025],[114.1085,22.2863],[114.1648,22.294],[113.9637,22.1543]]]},"properties":{"feature_type":"route","route_id":"R941","from_terminal":"Prelude FLNG Terminal","to_terminal":"Hong Kong FSRU","from_node_id":"LNGN0309","to_node_id":"LNGN0175","minimum_distance_km":5.22,"sensitivity_band":"within_10km","color":"#DC2626"}},{"type":"Feature","geometry":{"type":"MultiLineString","coordinates":[[[123.5382,-15.2539],[122.8643,-15.0297],[122.3615,-11.4395],[122.3,-11],[123.2185,-9.415],[124.548,-8.6555],[125.4255,-8.1565],[125.4378,-8.0685],[125.4503,-7.9815],[125.4658,-7.8715],[125.5745,-7.1015],[125.5743,-7.0339],[125.289,-5.055],[125.23,-4.6312],[125.1,-3.7],[125.362,-0.4892],[125.5,1.2],[123.6548,4.1413],[121.8915,6.9468],[121.7625,8.7195],[121.6135,11.2173],[121.4458,11.532],[119.9,14.4],[119.4003,17.0005],[119.5648,18.5048],[119.6083,18.903],[119.6373,19.166],[114.1136,21.7053],[113.7458,21.8328],[113.6338,21.961],[113.6213,22.138],[113.5658,22.189],[113.2193,21.906]]]},"properties":{"feature_type":"route","route_id":"R945","from_terminal":"Prelude FLNG Terminal","to_terminal":"Zhuhai LNG Terminal","from_node_id":"LNGN0309","to_node_id":"LNGN0473","minimum_distance_km":5.22,"sensitivity_band":"within_10km","color":"#DC2626"}},{"type":"Feature","geometry":{"type":"MultiLineString","coordinates":[[[113.9637,22.1543],[114.1648,22.294],[114.1085,22.2863],[114.0715,22.2025],[114.0875,22.0065],[114.253,21.772],[114.1136,21.7053],[119.6373,19.166],[119.6083,18.903],[119.5648,18.5048],[119.4003,17.0005],[119.9,14.4],[121.4458,11.532],[121.6135,11.2173],[121.7625,8.7195],[121.8915,6.9468],[124.5873,4.8185],[124.6663,4.7558],[125.6835,3.9513],[127.393,2.5988],[128.15,2],[130,0.0],[131.4,-3],[134.423,-4.9505],[134.5,-5],[137,-9],[142.133,-10.55],[145.4,-14.7],[145.845,-16.1837],[146,-16.7],[146.8818,-16.934],[147.0585,-17.1875],[149.433,-18.7467],[153.337,-23.7657],[151.199,-23.7693]]]},"properties":{"feature_type":"route","route_id":"R962","from_terminal":"Queensland Curtis LNG Terminal","to_terminal":"Hong Kong FSRU","from_node_id":"LNGN0322","to_node_id":"LNGN0175","minimum_distance_km":5.22,"sensitivity_band":"within_10km","color":"#DC2626"}},{"type":"Feature","geometry":{"type":"MultiLineString","coordinates":[[[117.1285,23.5837],[116.9965,22.9985],[117.7335,22.022],[117.7875,21.95],[119.3145,19.9143],[119.6675,19.4433],[119.6373,19.166],[119.6083,18.903],[119.5648,18.5048],[119.4003,17.0005],[119.9,14.4],[119.9035,14.2663],[120.05,8.4],[119.9675,7.3125],[119.7023,3.8055],[119.6408,2.9827],[119.5003,1.1003],[118.0193,-2.6812],[117.6988,-3.4957],[116.95,-5.4],[116.8675,-5.603],[116.8135,-5.7367],[116.2,-7.25],[115.6043,-9.0894],[115.5748,-9.2495],[116.4395,-17.9185],[116.555,-19.077],[116.6655,-20.1862],[116.6683,-20.213],[114.5,-20.9],[114.1373,-21.5181],[114.282,-21.7115],[114.2265,-22.0987],[115.0011,-21.6979]]]},"properties":{"feature_type":"route","route_id":"R1016","from_terminal":"Wheatstone LNG Terminal","to_terminal":"Chaozhou LNG Terminal (Huaying)","from_node_id":"LNGN0441","to_node_id":"LNGN0059","minimum_distance_km":11.536,"sensitivity_band":"between_10_and_25km","color":"#F59E0B"}},{"type":"Feature","geometry":{"type":"MultiLineString","coordinates":[[[127.7815,34.889],[127.6,34.2],[126.5398,33.5458],[124.751,32.442],[124.5338,32.308],[123.6605,31.3128],[123.3255,30.9308],[123.3073,30.8463],[123.0908,29.8435],[122.9568,29.2238],[123.0815,28.5043],[123.0928,28.4395],[123.195,27.85],[123.2905,27.3],[123.5365,25.8808],[123.5463,25.8238],[123.415,25.5708],[121.4633,21.8155],[120.4285,19.8248],[120,19],[119.4003,17.0005],[119.9,14.4],[119.9035,14.2663],[120.05,8.4],[119.9675,7.3125],[119.7023,3.8055],[119.6408,2.9827],[119.5003,1.1003],[118.0193,-2.6812],[117.6988,-3.4957],[116.95,-5.4],[116.8675,-5.603],[116.8135,-5.7367],[116.2,-7.25],[115.6043,-9.0894],[115.5748,-9.2495],[116.4395,-17.9185],[116.555,-19.077],[116.6655,-20.1862],[116.6683,-20.213],[114.5,-20.9],[114.1373,-21.5181],[114.282,-21.7115],[114.2265,-22.0987],[115.0011,-21.6979]]]},"properties":{"feature_type":"route","route_id":"R1018","from_terminal":"Wheatstone LNG Terminal","to_terminal":"Gwangyang LNG Terminal","from_node_id":"LNGN0441","to_node_id":"LNGN0156","minimum_distance_km":11.536,"sensitivity_band":"between_10_and_25km","color":"#F59E0B"}},{"type":"Feature","geometry":{"type":"MultiLineString","coordinates":[[[110.0577,19.9776],[111.35,20.4],[113.1995,19.6188],[113.667,19.4215],[116.6383,18.1665],[118.5558,17.3565],[119.4003,17.0005],[119.9,14.4],[119.9035,14.2663],[120.05,8.4],[119.9675,7.3125],[119.7023,3.8055],[119.6408,2.9827],[119.5003,1.1003],[118.0193,-2.6812],[117.6988,-3.4957],[116.95,-5.4],[116.8675,-5.603],[116.8135,-5.7367],[116.2,-7.25],[115.6043,-9.0894],[115.5748,-9.2495],[116.4395,-17.9185],[116.555,-19.077],[116.6655,-20.1862],[116.6683,-20.213],[114.5,-20.9],[114.1373,-21.5181],[114.282,-21.7115],[114.2265,-22.0987],[115.0011,-21.6979]]]},"properties":{"feature_type":"route","route_id":"R1019","from_terminal":"Wheatstone LNG Terminal","to_terminal":"Hainan Shennan LNG Storage Facility","from_node_id":"LNGN0441","to_node_id":"LNGN0163","minimum_distance_km":11.536,"sensitivity_band":"between_10_and_25km","color":"#F59E0B"}},{"type":"Feature","geometry":{"type":"MultiLineString","coordinates":[[[126.602,37.3512],[126.074,37.5263],[125.5,37.4],[125.5,36],[125.6,34.4],[124.4898,33.1253],[122.9,31.3],[122.7495,30.985],[122.6775,30.8345],[122.3663,30.1485],[122.2245,29.8365],[121.3,27.8],[120,25.7],[120,25.337],[120,24.6335],[119.7533,22.4557],[119.724,22.1985],[119.723,22.0813],[119.7043,19.7805],[119.6675,19.4433],[119.6373,19.166],[119.6083,18.903],[119.5648,18.5048],[119.4003,17.0005],[119.9,14.4],[119.9035,14.2663],[120.05,8.4],[119.9675,7.3125],[119.7023,3.8055],[119.6408,2.9827],[119.5003,1.1003],[118.0193,-2.6812],[117.6988,-3.4957],[116.95,-5.4],[116.8675,-5.603],[116.8135,-5.7367],[116.2,-7.25],[115.6043,-9.0894],[115.5748,-9.2495],[116.4395,-17.9185],[116.555,-19.077],[116.6655,-20.1862],[116.6683,-20.213],[114.5,-20.9],[114.1373,-21.5181],[114.282,-21.7115],[114.2265,-22.0987],[115.0011,-21.6979]]]},"properties":{"feature_type":"route","route_id":"R1021","from_terminal":"Wheatstone LNG Terminal","to_terminal":"Incheon LNG Terminal","from_node_id":"LNGN0441","to_node_id":"LNGN0181","minimum_distance_km":11.536,"sensitivity_band":"between_10_and_25km","color":"#F59E0B"}},{"type":"Feature","geometry":{"type":"MultiLineString","coordinates":[[[116.3714,22.9345],[116.9708,22.987],[116.9965,22.9985],[117.7335,22.022],[117.7875,21.95],[119.3145,19.9143],[119.6675,19.4433],[119.6373,19.166],[119.6083,18.903],[119.5648,18.5048],[119.4003,17.0005],[119.9,14.4],[119.9035,14.2663],[120.05,8.4],[119.9675,7.3125],[119.7023,3.8055],[119.6408,2.9827],[119.5003,1.1003],[118.0193,-2.6812],[117.6988,-3.4957],[116.95,-5.4],[116.8675,-5.603],[116.8135,-5.7367],[116.2,-7.25],[115.6043,-9.0894],[115.5748,-9.2495],[116.4395,-17.9185],[116.555,-19.077],[116.6655,-20.1862],[116.6683,-20.213],[114.5,-20.9],[114.1373,-21.5181],[114.282,-21.7115],[114.2265,-22.0987],[115.0011,-21.6979]]]},"properties":{"feature_type":"route","route_id":"R1022","from_terminal":"Wheatstone LNG Terminal","to_terminal":"Jieyang LNG Terminal (PipeChina)","from_node_id":"LNGN0441","to_node_id":"LNGN0195","minimum_distance_km":11.536,"sensitivity_band":"between_10_and_25km","color":"#F59E0B"}},{"type":"Feature","geometry":{"type":"MultiLineString","coordinates":[[[115.0011,-21.6979],[114.2265,-22.0987],[114.282,-21.7115],[114.1373,-21.5181],[114.5,-20.9],[116.6683,-20.213],[116.6655,-20.1862],[116.555,-19.077],[116.4395,-17.9185],[115.5748,-9.2495],[115.6043,-9.0894],[116.2,-7.25],[116.8135,-5.7367],[116.8675,-5.603],[116.95,-5.4],[117.6988,-3.4957],[118.0193,-2.6812],[119.5003,1.1003],[119.6408,2.9827],[119.7023,3.8055],[119.9675,7.3125],[120.05,8.4],[119.9035,14.2663],[119.9,14.4],[119.4003,17.0005],[120,19],[120.4285,19.8248],[121.4633,21.8155],[123.415,25.5708],[123.5463,25.8238],[123.5365,25.8808],[123.2905,27.3],[123.195,27.85],[123.0928,28.4395],[123.0815,28.5043],[122.9568,29.2238],[123.0908,29.8435],[123.3073,30.8463],[123.3255,30.9308],[123.6605,31.3128],[124.5338,32.308],[124.751,32.442],[126.5398,33.5458],[127.6,34.2],[129.0973,34.9485],[129.2,35],[130,36.4],[129.3,37.9],[129.3502,37.1683]]]},"properties":{"feature_type":"route","route_id":"R1026","from_terminal":"Wheatstone LNG Terminal","to_terminal":"Samcheok LNG Terminal","from_node_id":"LNGN0441","to_node_id":"LNGN0354","minimum_distance_km":11.536,"sensitivity_band":"between_10_and_25km","color":"#F59E0B"}},{"type":"Feature","geometry":{"type":"MultiLineString","coordinates":[[[119.7597,35.5862],[120.2858,36.086],[120.272,36.0303],[121.0345,35.9205],[121,35.9],[121.468,34.767],[122.18,33.0435],[122.9,31.3],[122.7495,30.985],[122.6775,30.8345],[122.3663,30.1485],[122.2245,29.8365],[121.3,27.8],[120,25.7],[120,25.337],[120,24.6335],[119.7533,22.4557],[119.724,22.1985],[119.723,22.0813],[119.7043,19.7805],[119.6675,19.4433],[119.6373,19.166],[119.6083,18.903],[119.5648,18.5048],[119.4003,17.0005],[119.9,14.4],[119.9035,14.2663],[120.05,8.4],[119.9675,7.3125],[119.7023,3.8055],[119.6408,2.9827],[119.5003,1.1003],[118.0193,-2.6812],[117.6988,-3.4957],[116.95,-5.4],[116.8675,-5.603],[116.8135,-5.7367],[116.2,-7.25],[115.6043,-9.0894],[115.5748,-9.2495],[116.4395,-17.9185],[116.555,-19.077],[116.6655,-20.1862],[116.6683,-20.213],[114.5,-20.9],[114.1373,-21.5181],[114.282,-21.7115],[114.2265,-22.0987],[115.0011,-21.6979]]]},"properties":{"feature_type":"route","route_id":"R1028","from_terminal":"Wheatstone LNG Terminal","to_terminal":"Shandong LNG Terminal","from_node_id":"LNGN0441","to_node_id":"LNGN0363","minimum_distance_km":11.536,"sensitivity_band":"between_10_and_25km","color":"#F59E0B"}}]}